{"type": "FeatureCollection", "features": [ {"type": "Feature", "properties": {"norad_id": 66662, "name": "2025-274N", "group": "last-30-days", "lat": 77.7979094706817, "lon": 135.31873926559294, "alt_km": 590.2224562889814, "timestamp": "2025-12-15T04:01:19.180705+00:00", "meta": {"OBJECT_NAME": "2025-274N", "OBJECT_ID": "2025-274N", "EPOCH": "2025-12-14T06:40:09.683904", "MEAN_MOTION": 14.9316159, "ECCENTRICITY": 0.00136411, "INCLINATION": 97.7389, "RA_OF_ASC_NODE": 275.4771, "ARG_OF_PERICENTER": 275.8148, "MEAN_ANOMALY": 84.1516, "EPHEMERIS_TYPE": 0, "CLASSIFICATION_TYPE": "U", "NORAD_CAT_ID": 66662, "ELEMENT_SET_NO": 999, "REV_AT_EPOCH": 263, "BSTAR": 0.00035762605, "MEAN_MOTION_DOT": 3.682e-05, "MEAN_MOTION_DDOT": 0}, "tle": {"line1": "1 66662U 25274N   25348.27788986  .00003682  00000+0  35763-3 0  9998", "line2": "2 66662  97.7389 275.4771 0013641 275.8148  84.1516 14.93161590  2639"}}, "geometry": {"type": "Point", "coordinates": [135.31873926559294, 77.7979094706817]}}, {"type": "Feature", "properties": {"norad_id": 66663, "name": "KSLV-II R/B", "group": "last-30-days", "lat": 18.545850226355476, "lon": -86.1280174780675, "alt_km": 561.0544441579723, "timestamp": "2025-12-15T04:01:19.180718+00:00", "meta": {"OBJECT_NAME": "KSLV-II R/B", "OBJECT_ID": "2025-274P", "EPOCH": "2025-12-14T07:05:20.920992", "MEAN_MOTION": 14.97323392, "ECCENTRICITY": 0.00533004, "INCLINATION": 97.7407, "RA_OF_ASC_NODE": 275.6236, "ARG_OF_PERICENTER": 314.3842, "MEAN_ANOMALY": 45.3021, "EPHEMERIS_TYPE": 0, "CLASSIFICATION_TYPE": "U", "NORAD_CAT_ID": 66663, "ELEMENT_SET_NO": 999, "REV_AT_EPOCH": 264, "BSTAR": 0.00057712069, "MEAN_MOTION_DOT": 6.834e-05, "MEAN_MOTION_DDOT": 0}, "tle": {"line1": "1 66663U 25274P   25348.29538103  .00006834  00000+0  57712-3 0  9995", "line2": "2 66663  97.7407 275.6236 0053300 314.3842  45.3021 14.97323392  2640"}}, "geometry": {"type": "Point", "coordinates": [-86.1280174780675, 18.545850226355476]}}, {"type": "Feature", "properties": {"norad_id": 66664, "name": "SOYUZ-MS 28", "group": "last-30-days", "lat": -50.8419432414359, "lon": 27.084675145556986, "alt_km": 420.285797786436, "timestamp": "2025-12-15T04:01:19.180728+00:00", "meta": {"OBJECT_NAME": "SOYUZ-MS 28", "OBJECT_ID": "2025-275A", "EPOCH": "2025-12-14T05:13:44.174496", "MEAN_MOTION": 15.49586484, "ECCENTRICITY": 0.00032642, "INCLINATION": 51.6305, "RA_OF_ASC_NODE": 135.1599, "ARG_OF_PERICENTER": 246.9077, "MEAN_ANOMALY": 113.1568, "EPHEMERIS_TYPE": 0, "CLASSIFICATION_TYPE": "U", "NORAD_CAT_ID": 66664, "ELEMENT_SET_NO": 999, "REV_AT_EPOCH": 128, "BSTAR": 0.00022198491, "MEAN_MOTION_DOT": 0.00012052, "MEAN_MOTION_DDOT": 0}, "tle": {"line1": "1 66664U 25275A   25348.21787239  .00012052  00000+0  22198-3 0  9994", "line2": "2 66664  51.6305 135.1599 0003264 246.9077 113.1568 15.49586484  1283"}}, "geometry": {"type": "Point", "coordinates": [27.084675145556986, -50.8419432414359]}}, {"type": "Feature", "properties": {"norad_id": 66791, "name": "STARLINK-35867", "group": "last-30-days", "lat": -16.231061366252433, "lon": 75.42297518571992, "alt_km": 329.4097265728333, "timestamp": "2025-12-15T04:01:19.180738+00:00", "meta": {"OBJECT_NAME": "STARLINK-35867", "OBJECT_ID": "2025-278A", "EPOCH": "2025-12-14T06:00:02.999808", "MEAN_MOTION": 15.83107481, "ECCENTRICITY": 0.0001964, "INCLINATION": 42.9972, "RA_OF_ASC_NODE": 242.8417, "ARG_OF_PERICENTER": 277.4625, "MEAN_ANOMALY": 94.7743, "EPHEMERIS_TYPE": 0, "CLASSIFICATION_TYPE": "U", "NORAD_CAT_ID": 66791, "ELEMENT_SET_NO": 999, "REV_AT_EPOCH": 320, "BSTAR": -0.0058634657, "MEAN_MOTION_DOT": -0.01161498, "MEAN_MOTION_DDOT": 0}, "tle": {"line1": "1 66791U 25278A   25348.25003472 -.01161498  00000+0 -58635-2 0  9998", "line2": "2 66791  42.9972 242.8417 0001964 277.4625  94.7743 15.83107481  3202"}}, "geometry": {"type": "Point", "coordinates": [75.42297518571992, -16.231061366252433]}}, {"type": "Feature", "properties": {"norad_id": 66792, "name": "STARLINK-35990", "group": "last-30-days", "lat": -17.4244852804269, "lon": 76.89675887397001, "alt_km": 329.3985320404263, "timestamp": "2025-12-15T04:01:19.180748+00:00", "meta": {"OBJECT_NAME": "STARLINK-35990", "OBJECT_ID": "2025-278B", "EPOCH": "2025-12-14T06:00:02.999808", "MEAN_MOTION": 15.83131283, "ECCENTRICITY": 0.00019974, "INCLINATION": 42.997, "RA_OF_ASC_NODE": 242.8373, "ARG_OF_PERICENTER": 276.6475, "MEAN_ANOMALY": 97.3827, "EPHEMERIS_TYPE": 0, "CLASSIFICATION_TYPE": "U", "NORAD_CAT_ID": 66792, "ELEMENT_SET_NO": 999, "REV_AT_EPOCH": 320, "BSTAR": -0.005888814, "MEAN_MOTION_DOT": -0.0116719, "MEAN_MOTION_DDOT": 0}, "tle": {"line1": "1 66792U 25278B   25348.25003472 -.01167190  00000+0 -58888-2 0  9994", "line2": "2 66792  42.9970 242.8373 0001997 276.6475  97.3827 15.83131283  3201"}}, "geometry": {"type": "Point", "coordinates": [76.89675887397001, -17.4244852804269]}}, {"type": "Feature", "properties": {"norad_id": 66793, "name": "STARLINK-36051", "group": "last-30-days", "lat": -20.49479493725842, "lon": 80.85070734515004, "alt_km": 329.8400312160047, "timestamp": "2025-12-15T04:01:19.180758+00:00", "meta": {"OBJECT_NAME": "STARLINK-36051", "OBJECT_ID": "2025-278C", "EPOCH": "2025-12-14T06:00:02.999808", "MEAN_MOTION": 15.83100255, "ECCENTRICITY": 0.00019336, "INCLINATION": 42.9972, "RA_OF_ASC_NODE": 242.8243, "ARG_OF_PERICENTER": 274.3949, "MEAN_ANOMALY": 104.7636, "EPHEMERIS_TYPE": 0, "CLASSIFICATION_TYPE": "U", "NORAD_CAT_ID": 66793, "ELEMENT_SET_NO": 999, "REV_AT_EPOCH": 310, "BSTAR": -0.0061801534, "MEAN_MOTION_DOT": -0.01216844, "MEAN_MOTION_DDOT": 0}, "tle": {"line1": "1 66793U 25278C   25348.25003472 -.01216844  00000+0 -61802-2 0  9996", "line2": "2 66793  42.9972 242.8243 0001933 274.3949 104.7636 15.83100255  3106"}}, "geometry": {"type": "Point", "coordinates": [80.85070734515004, -20.49479493725842]}}, {"type": "Feature", "properties": {"norad_id": 66794, "name": "STARLINK-36062", "group": "last-30-days", "lat": -19.102425792085985, "lon": 79.02587538671301, "alt_km": 329.83544476249244, "timestamp": "2025-12-15T04:01:19.180768+00:00", "meta": {"OBJECT_NAME": "STARLINK-36062", "OBJECT_ID": "2025-278D", "EPOCH": "2025-12-14T06:00:02.999808", "MEAN_MOTION": 15.83107092, "ECCENTRICITY": 0.00019461, "INCLINATION": 42.9972, "RA_OF_ASC_NODE": 242.8301, "ARG_OF_PERICENTER": 278.5676, "MEAN_ANOMALY": 98.3107, "EPHEMERIS_TYPE": 0, "CLASSIFICATION_TYPE": "U", "NORAD_CAT_ID": 66794, "ELEMENT_SET_NO": 999, "REV_AT_EPOCH": 320, "BSTAR": -0.0061103388, "MEAN_MOTION_DOT": -0.01204976, "MEAN_MOTION_DDOT": 0}, "tle": {"line1": "1 66794U 25278D   25348.25003472 -.01204976  00000+0 -61103-2 0  9994", "line2": "2 66794  42.9972 242.8301 0001946 278.5676  98.3107 15.83107092  3207"}}, "geometry": {"type": "Point", "coordinates": [79.02587538671301, -19.102425792085985]}}, {"type": "Feature", "properties": {"norad_id": 66795, "name": "STARLINK-36047", "group": "last-30-days", "lat": -22.05008061836776, "lon": 82.96043434902192, "alt_km": 330.002678203251, "timestamp": "2025-12-15T04:01:19.180930+00:00", "meta": {"OBJECT_NAME": "STARLINK-36047", "OBJECT_ID": "2025-278E", "EPOCH": "2025-12-14T06:00:02.999808", "MEAN_MOTION": 15.83066927, "ECCENTRICITY": 0.00018819, "INCLINATION": 42.9973, "RA_OF_ASC_NODE": 242.8174, "ARG_OF_PERICENTER": 271.5296, "MEAN_ANOMALY": 110.3058, "EPHEMERIS_TYPE": 0, "CLASSIFICATION_TYPE": "U", "NORAD_CAT_ID": 66795, "ELEMENT_SET_NO": 999, "REV_AT_EPOCH": 310, "BSTAR": -0.0062777648, "MEAN_MOTION_DOT": -0.01232106, "MEAN_MOTION_DDOT": 0}, "tle": {"line1": "1 66795U 25278E   25348.25003472 -.01232106  00000+0 -62778-2 0  9990", "line2": "2 66795  42.9973 242.8174 0001881 271.5296 110.3058 15.83066927  3106"}}, "geometry": {"type": "Point", "coordinates": [82.96043434902192, -22.05008061836776]}}, {"type": "Feature", "properties": {"norad_id": 66796, "name": "STARLINK-35964", "group": "last-30-days", "lat": -42.89123033864981, "lon": 150.46131413292255, "alt_km": 301.421895603592, "timestamp": "2025-12-15T04:01:19.180946+00:00", "meta": {"OBJECT_NAME": "STARLINK-35964", "OBJECT_ID": "2025-278F", "EPOCH": "2025-12-14T06:00:02.999808", "MEAN_MOTION": 15.94725878, "ECCENTRICITY": 0.00018116, "INCLINATION": 42.9942, "RA_OF_ASC_NODE": 241.8418, "ARG_OF_PERICENTER": 275.6166, "MEAN_ANOMALY": 130.0142, "EPHEMERIS_TYPE": 0, "CLASSIFICATION_TYPE": "U", "NORAD_CAT_ID": 66796, "ELEMENT_SET_NO": 999, "REV_AT_EPOCH": 304, "BSTAR": -0.0059120362, "MEAN_MOTION_DOT": -0.02328868, "MEAN_MOTION_DDOT": 0.001482682}, "tle": {"line1": "1 66796U 25278F   25348.25003472 -.02328868  14827-2 -59120-2 0  9995", "line2": "2 66796  42.9942 241.8418 0001811 275.6166 130.0142 15.94725878  3042"}}, "geometry": {"type": "Point", "coordinates": [150.46131413292255, -42.89123033864981]}}, {"type": "Feature", "properties": {"norad_id": 66797, "name": "STARLINK-36099", "group": "last-30-days", "lat": -25.087650969853037, "lon": 87.34396164271462, "alt_km": 330.5265741422754, "timestamp": "2025-12-15T04:01:19.180956+00:00", "meta": {"OBJECT_NAME": "STARLINK-36099", "OBJECT_ID": "2025-278G", "EPOCH": "2025-12-14T06:00:02.999808", "MEAN_MOTION": 15.82987887, "ECCENTRICITY": 0.00019257, "INCLINATION": 42.9972, "RA_OF_ASC_NODE": 242.8037, "ARG_OF_PERICENTER": 273.955, "MEAN_ANOMALY": 113.2769, "EPHEMERIS_TYPE": 0, "CLASSIFICATION_TYPE": "U", "NORAD_CAT_ID": 66797, "ELEMENT_SET_NO": 999, "REV_AT_EPOCH": 326, "BSTAR": -0.0064377116, "MEAN_MOTION_DOT": -0.01255676, "MEAN_MOTION_DDOT": 0}, "tle": {"line1": "1 66797U 25278G   25348.25003472 -.01255676  00000+0 -64377-2 0  9996", "line2": "2 66797  42.9972 242.8037 0001925 273.9550 113.2769 15.82987887  3267"}}, "geometry": {"type": "Point", "coordinates": [87.34396164271462, -25.087650969853037]}}]}